OBJECT_NAME,OBJECT_ID,EPOCH,MEAN_MOTION,ECCENTRICITY,INCLINATION,RA_OF_ASC_NODE,ARG_OF_PERICENTER,MEAN_ANOMALY,EPHEMERIS_TYPE,CLASSIFICATION_TYPE,NORAD_CAT_ID,ELEMENT_SET_NO,REV_AT_EPOCH,BSTAR,MEAN_MOTION_DOT,MEAN_MOTION_DDOT
KUIPER-00614,2026-151L,2026-07-23T00:59:34.561536,15.38242293,.00032226,51.8797,142.3282,153.6537,206.4614,0,U,69773,999,322,.7671614E-3,.29081E-3,0
KUIPER-00615,2026-151M,2026-07-23T06:00:02.000160,15.34264948,.00063572,51.8778,141.5040,176.1233,176.6715,0,U,69774,999,209,.20080303E-2,.67889E-3,0
KUIPER-00616,2026-151N,2026-07-23T02:29:37.663296,15.38499856,.0003438,51.8781,142.0022,159.7088,200.4037,0,U,69775,999,323,.8924555E-3,.34208E-3,0
KUIPER-00617,2026-151P,2026-07-23T05:47:01.646592,15.37911621,.00040947,51.8793,141.4165,169.5227,190.5846,0,U,69776,999,325,.57688066E-3,.21514E-3,0
KUIPER-00619,2026-151Q,2026-07-23T05:32:18.540096,15.38714521,.00013515,51.8817,141.3479,78.4198,281.6941,0,U,69777,999,325,.72437398E-3,.2786E-3,0
KUIPER-00621,2026-151R,2026-07-23T05:37:00.115104,15.38437028,.0001759,51.8794,141.3750,129.0977,231.0167,0,U,69778,999,325,.7577072E-3,.289E-3,0
KUIPER-00622,2026-151S,2026-07-23T06:00:02.000160,15.34508982,.00070139,51.8738,141.5183,171.9423,168.8632,0,U,69779,999,388,-.20846837E-1,-.658722E-2,0
KUIPER-00623,2026-151T,2026-07-23T05:53:57.438816,15.37515840,.00047566,51.8775,141.4488,157.0535,203.0665,0,U,69780,999,325,.64807321E-3,.23915E-3,0
KUIPER-00626,2026-151U,2026-07-23T04:58:32.636352,15.34567810,.00098734,51.8721,141.9274,191.6787,168.3971,0,U,69781,999,324,.40953155E-3,.13586E-3,0
KUIPER-00627,2026-151V,2026-07-23T01:55:18.486912,15.34409383,.0010462,51.8700,142.5708,198.9015,161.1584,0,U,69782,999,322,.53409491E-3,.17758E-3,0
KUIPER-00629,2026-151W,2026-07-23T06:00:02.000160,15.24274123,.00057068,51.8829,141.9589,190.8308,318.4531,0,U,69783,999,357,-.46968503E-1,-.1066271E-1,0
KUIPER-00631,2026-151X,2026-07-23T06:00:02.000160,15.24193176,.00076114,51.8791,141.9113,190.3629,328.6148,0,U,69784,999,130,-.49788703E-1,-.1122969E-1,0
KUIPER-00634,2026-151Y,2026-07-23T05:48:04.047264,15.37906810,.00033663,51.8773,141.4225,168.8537,191.2525,0,U,69785,999,325,.72662143E-3,.27215E-3,0
KUIPER-00639,2026-151Z,2026-07-23T04:54:04.194144,15.34586559,.00098008,51.8687,141.9041,187.8748,172.2085,0,U,69786,999,324,.60761506E-3,.20374E-3,0
KUIPER-00641,2026-151AA,2026-07-23T01:58:28.162560,15.33965387,.00113332,51.8687,142.5824,194.3888,165.6777,0,U,69787,999,322,.55646238E-3,.18261E-3,0
KUIPER-00644,2026-151AB,2026-07-23T04:38:22.020288,15.36501852,.00077514,51.8736,141.8409,189.2475,170.8369,0,U,69788,999,323,.45134663E-3,.15985E-3,0
KUIPER-00646,2026-151AC,2026-07-23T04:49:34.968288,15.35284862,.00100514,51.8702,141.8872,192.8462,167.2269,0,U,69789,999,324,-.14751805E-3,-.5524E-4,0
KUIPER-00647,2026-151AD,2026-07-23T04:59:27.209184,15.34489453,.00129666,51.8669,141.9232,188.9310,171.1447,0,U,69790,999,324,-.22666829E-2,-.76712E-3,0
KUIPER-00662,2026-151AE,2026-07-23T06:00:02.000160,15.26480712,.00080038,51.8782,141.8768,180.9245,319.3026,0,U,69791,999,226,-.14013209E-1,-.354382E-2,0
LINK,2026-152A,2026-07-21T11:36:42.787584,15.67728585,.00235185,20.5930,278.9369,85.5169,274.7964,0,U,69792,999,284,.87541489E-3,.104063E-2,0
2026-152B,2026-152B,2026-07-23T06:55:05.825568,15.65448636,.00231636,20.5971,265.4620,103.6853,256.6174,0,U,69793,999,312,.53447449E-3,.57949E-3,0
ISS OBJECT YJ,1998-067YJ,2026-07-23T01:03:18.742752,15.50414828,.00076611,51.6312,122.5055,337.9458,22.1200,0,U,69794,999,321,.68494593E-3,.39447E-3,0
ISS OBJECT YK,1998-067YK,2026-07-23T00:52:00.628896,15.51387982,.00063516,51.6317,122.4543,343.2849,16.7930,0,U,69795,999,321,.11413013E-2,.68607E-3,0
ISS OBJECT YL,1998-067YL,2026-07-23T00:55:35.168736,15.50999758,.00084673,51.6318,122.4700,338.6492,21.4143,0,U,69796,999,320,.90359449E-3,.53398E-3,0
ISS OBJECT YM,1998-067YM,2026-07-20T01:46:35.225184,15.50880460,.0009481,51.6311,137.1739,319.6197,40.4088,0,U,69797,999,273,.86101476E-3,.50643E-3,0
ISS OBJECT YN,1998-067YN,2026-07-22T00:13:03.456192,15.50596645,.00090855,51.6321,127.5954,339.1650,20.8968,0,U,69798,999,305,.57201763E-3,.3307E-3,0
PROVES-ELECTRA,1998-067YP,2026-07-23T00:54:53.229312,15.51004344,.00095391,51.6322,122.4661,330.7825,29.2630,0,U,69799,999,320,.8012391E-3,.47286E-3,0
QIANFAN-201,2026-153A,2026-07-23T06:06:34.741728,14.22096243,.00086653,88.9931,358.1199,151.9972,208.1687,0,U,69800,999,269,.14730002E-3,.34E-5,0
QIANFAN-202,2026-153B,2026-07-23T05:19:45.074208,14.18845442,.00076393,88.9931,358.1338,151.5595,208.6013,0,U,69801,999,268,.88509248E-4,.198E-5,0
QIANFAN-203,2026-153C,2026-07-23T05:04:15.709152,14.19389774,.00082067,88.9930,358.1321,153.3427,206.8187,0,U,69802,999,268,.57534442E-4,.135E-5,0
